GALAXY 31 (G-31)        
1 54243U 22153A   26115.89959946  .00000000  00000+0  00000+0 0  9993
2 54243   0.0401  71.5977 0001300 315.7903  29.3676  1.00271147  6601
GALAXY 32 (G-32)        
1 54244U 22153B   26115.40641748 -.00000188  00000+0  00000+0 0  9997
2 54244   0.0041 308.3699 0002819  71.5840 248.7748  1.00271122 12615
GALAXY 35 (G-35)        
1 54741U 22170A   26115.90514615 -.00000176  00000+0  00000+0 0  9992
2 54741   0.0212 134.7727 0001984 258.0133  53.8662  1.00271695 12366
GALAXY 36 (G-36)        
1 54742U 22170B   26115.86780985 -.00000199  00000+0  00000+0 0  9998
2 54742   0.0108 199.5307 0002689 224.1367  13.6215  1.00271553 12248
GALAXY 37 (G-37)        
1 57493U 23112A   26115.68455316  .00000000  00000+0  00000+0 0  9998
2 57493   0.0146 242.4893 0002134 148.3697 302.2829  1.00269886 10019
