[{"OBJECT_NAME":"GALAXY 31 (G-31)","OBJECT_ID":"2022-153A","EPOCH":"2026-04-25T21:35:25.393344","MEAN_MOTION":1.00271147,"ECCENTRICITY":0.00013009,"INCLINATION":0.0401,"RA_OF_ASC_NODE":71.5977,"ARG_OF_PERICENTER":315.7903,"MEAN_ANOMALY":29.3676,"EPHEMERIS_TYPE":0,"CLASSIFICATION_TYPE":"U","NORAD_CAT_ID":54243,"ELEMENT_SET_NO":999,"REV_AT_EPOCH":660,"BSTAR":0,"MEAN_MOTION_DOT":0,"MEAN_MOTION_DDOT":0},{"OBJECT_NAME":"GALAXY 32 (G-32)","OBJECT_ID":"2022-153B","EPOCH":"2026-04-25T09:45:14.470272","MEAN_MOTION":1.00271122,"ECCENTRICITY":0.00028196,"INCLINATION":0.0041,"RA_OF_ASC_NODE":308.3699,"ARG_OF_PERICENTER":71.584,"MEAN_ANOMALY":248.7748,"EPHEMERIS_TYPE":0,"CLASSIFICATION_TYPE":"U","NORAD_CAT_ID":54244,"ELEMENT_SET_NO":999,"REV_AT_EPOCH":1261,"BSTAR":0,"MEAN_MOTION_DOT":-1.88e-6,"MEAN_MOTION_DDOT":0},{"OBJECT_NAME":"GALAXY 35 (G-35)","OBJECT_ID":"2022-170A","EPOCH":"2026-04-25T21:43:24.627360","MEAN_MOTION":1.00271695,"ECCENTRICITY":0.00019847,"INCLINATION":0.0212,"RA_OF_ASC_NODE":134.7727,"ARG_OF_PERICENTER":258.0133,"MEAN_ANOMALY":53.8662,"EPHEMERIS_TYPE":0,"CLASSIFICATION_TYPE":"U","NORAD_CAT_ID":54741,"ELEMENT_SET_NO":999,"REV_AT_EPOCH":1236,"BSTAR":0,"MEAN_MOTION_DOT":-1.76e-6,"MEAN_MOTION_DDOT":0},{"OBJECT_NAME":"GALAXY 36 (G-36)","OBJECT_ID":"2022-170B","EPOCH":"2026-04-25T20:49:38.771040","MEAN_MOTION":1.00271553,"ECCENTRICITY":0.00026896,"INCLINATION":0.0108,"RA_OF_ASC_NODE":199.5307,"ARG_OF_PERICENTER":224.1367,"MEAN_ANOMALY":13.6215,"EPHEMERIS_TYPE":0,"CLASSIFICATION_TYPE":"U","NORAD_CAT_ID":54742,"ELEMENT_SET_NO":999,"REV_AT_EPOCH":1224,"BSTAR":0,"MEAN_MOTION_DOT":-1.99e-6,"MEAN_MOTION_DDOT":0},{"OBJECT_NAME":"GALAXY 37 (G-37)","OBJECT_ID":"2023-112A","EPOCH":"2026-04-25T16:25:45.393024","MEAN_MOTION":1.00269886,"ECCENTRICITY":0.0002134,"INCLINATION":0.0146,"RA_OF_ASC_NODE":242.4893,"ARG_OF_PERICENTER":148.3697,"MEAN_ANOMALY":302.2829,"EPHEMERIS_TYPE":0,"CLASSIFICATION_TYPE":"U","NORAD_CAT_ID":57493,"ELEMENT_SET_NO":999,"REV_AT_EPOCH":1001,"BSTAR":0,"MEAN_MOTION_DOT":0,"MEAN_MOTION_DDOT":0}]
